PHISAT 2                
1 60470U 24149C   26068.78834181  .00008925  00000+0  31421-3 0  9996
2 60470  97.3806 148.6498 0001175 168.6230 191.5037 15.29548631 86792
STARLINK-33857          
1 64195U 25113AB  26068.79405419  .00024432  00000+0  83379-3 0  9995
2 64195  53.1599  90.4571 0001938 107.8257 252.2955 15.30220343 45042
